{"type": "FeatureCollection", "features": [ {"type": "Feature", "properties": {"norad_id": 54234, "name": "NOAA 21 (JPSS-2)", "group": "weather", "lat": -15.765756483862686, "lon": 114.7293670248156, "alt_km": 832.7811182224623, "timestamp": "2025-12-27T02:10:15.831386+00:00", "meta": {"OBJECT_NAME": "NOAA 21 (JPSS-2)", "OBJECT_ID": "2022-150A", "EPOCH": "2025-12-26T20:10:35.012928", "MEAN_MOTION": 14.19528039, "ECCENTRICITY": 0.0001559, "INCLINATION": 98.7479, "RA_OF_ASC_NODE": 296.9742, "ARG_OF_PERICENTER": 8.2407, "MEAN_ANOMALY": 351.8795, "EPHEMERIS_TYPE": 0, "CLASSIFICATION_TYPE": "U", "NORAD_CAT_ID": 54234, "ELEMENT_SET_NO": 999, "REV_AT_EPOCH": 16209, "BSTAR": 7.2691e-05, "MEAN_MOTION_DOT": 1.09e-06, "MEAN_MOTION_DDOT": 0}, "tle": {"line1": "1 54234U 22150A   25360.84068302  .00000109  00000+0  72691-4 0  9993", "line2": "2 54234  98.7479 296.9742 0001559   8.2407 351.8795 14.19528039162092"}}, "geometry": {"type": "Point", "coordinates": [114.7293670248156, -15.765756483862686]}}, {"type": "Feature", "properties": {"norad_id": 54743, "name": "METEOSAT-12 (MTG-I1)", "group": "weather", "lat": 0.7022404151029129, "lon": 128.04648371116724, "alt_km": 35791.76099145737, "timestamp": "2025-12-27T02:10:15.831398+00:00", "meta": {"OBJECT_NAME": "METEOSAT-12 (MTG-I1)", "OBJECT_ID": "2022-170C", "EPOCH": "2025-12-26T08:51:38.739168", "MEAN_MOTION": 1.00270911, "ECCENTRICITY": 0.0001715, "INCLINATION": 0.7011, "RA_OF_ASC_NODE": 25.8801, "ARG_OF_PERICENTER": 242.0428, "MEAN_ANOMALY": 319.779, "EPHEMERIS_TYPE": 0, "CLASSIFICATION_TYPE": "U", "NORAD_CAT_ID": 54743, "ELEMENT_SET_NO": 999, "REV_AT_EPOCH": 1124, "BSTAR": 0, "MEAN_MOTION_DOT": 1.4e-07, "MEAN_MOTION_DDOT": 0}, "tle": {"line1": "1 54743U 22170C   25360.36919837  .00000014  00000+0  00000+0 0  9990", "line2": "2 54743   0.7011  25.8801 0001715 242.0428 319.7790  1.00270911 11249"}}, "geometry": {"type": "Point", "coordinates": [128.04648371116724, 0.7022404151029129]}}, {"type": "Feature", "properties": {"norad_id": 55973, "name": "TIANMU-1 03", "group": "weather", "lat": -81.73187476500217, "lon": -130.61960916092352, "alt_km": 450.1369031928589, "timestamp": "2025-12-27T02:10:15.831409+00:00", "meta": {"OBJECT_NAME": "TIANMU-1 03", "OBJECT_ID": "2023-039A", "EPOCH": "2025-12-26T20:18:49.178592", "MEAN_MOTION": 15.41342685, "ECCENTRICITY": 0.0003681, "INCLINATION": 97.5115, "RA_OF_ASC_NODE": 163.8958, "ARG_OF_PERICENTER": 19.3777, "MEAN_ANOMALY": 340.7608, "EPHEMERIS_TYPE": 0, "CLASSIFICATION_TYPE": "U", "NORAD_CAT_ID": 55973, "ELEMENT_SET_NO": 999, "REV_AT_EPOCH": 15423, "BSTAR": 0.00040671, "MEAN_MOTION_DOT": 0.00016893, "MEAN_MOTION_DDOT": 0}, "tle": {"line1": "1 55973U 23039A   25360.84640253  .00016893  00000+0  40671-3 0  9991", "line2": "2 55973  97.5115 163.8958 0003681  19.3777 340.7608 15.41342685154233"}}, "geometry": {"type": "Point", "coordinates": [-130.61960916092352, -81.73187476500217]}}, {"type": "Feature", "properties": {"norad_id": 55974, "name": "TIANMU-1 04", "group": "weather", "lat": 44.496769851302304, "lon": 155.88963262889706, "alt_km": 434.9533627632072, "timestamp": "2025-12-27T02:10:15.831454+00:00", "meta": {"OBJECT_NAME": "TIANMU-1 04", "OBJECT_ID": "2023-039B", "EPOCH": "2025-12-26T21:18:12.697344", "MEAN_MOTION": 15.41688281, "ECCENTRICITY": 0.0004279, "INCLINATION": 97.5046, "RA_OF_ASC_NODE": 163.1237, "ARG_OF_PERICENTER": 12.5976, "MEAN_ANOMALY": 347.5377, "EPHEMERIS_TYPE": 0, "CLASSIFICATION_TYPE": "U", "NORAD_CAT_ID": 55974, "ELEMENT_SET_NO": 999, "REV_AT_EPOCH": 15424, "BSTAR": 0.00041243, "MEAN_MOTION_DOT": 0.00017332, "MEAN_MOTION_DDOT": 0}, "tle": {"line1": "1 55974U 23039B   25360.88764696  .00017332  00000+0  41243-3 0  9999", "line2": "2 55974  97.5046 163.1237 0004279  12.5976 347.5377 15.41688281154244"}}, "geometry": {"type": "Point", "coordinates": [155.88963262889706, 44.496769851302304]}}, {"type": "Feature", "properties": {"norad_id": 55975, "name": "TIANMU-1 05", "group": "weather", "lat": 56.35436951276482, "lon": 152.39328708630526, "alt_km": 434.40702076851994, "timestamp": "2025-12-27T02:10:15.831503+00:00", "meta": {"OBJECT_NAME": "TIANMU-1 05", "OBJECT_ID": "2023-039C", "EPOCH": "2025-12-26T21:14:59.798976", "MEAN_MOTION": 15.41300189, "ECCENTRICITY": 0.0003863, "INCLINATION": 97.5093, "RA_OF_ASC_NODE": 163.6142, "ARG_OF_PERICENTER": 39.3021, "MEAN_ANOMALY": 320.8505, "EPHEMERIS_TYPE": 0, "CLASSIFICATION_TYPE": "U", "NORAD_CAT_ID": 55975, "ELEMENT_SET_NO": 999, "REV_AT_EPOCH": 15422, "BSTAR": 0.00041007, "MEAN_MOTION_DOT": 0.0001701, "MEAN_MOTION_DDOT": 0}, "tle": {"line1": "1 55975U 23039C   25360.88541434  .00017010  00000+0  41007-3 0  9994", "line2": "2 55975  97.5093 163.6142 0003863  39.3021 320.8505 15.41300189154226"}}, "geometry": {"type": "Point", "coordinates": [152.39328708630526, 56.35436951276482]}}, {"type": "Feature", "properties": {"norad_id": 55976, "name": "TIANMU-1 06", "group": "weather", "lat": 35.2068120590226, "lon": 158.96049390749369, "alt_km": 435.88515537352305, "timestamp": "2025-12-27T02:10:15.831516+00:00", "meta": {"OBJECT_NAME": "TIANMU-1 06", "OBJECT_ID": "2023-039D", "EPOCH": "2025-12-26T21:20:39.783840", "MEAN_MOTION": 15.41739291, "ECCENTRICITY": 0.0004116, "INCLINATION": 97.5104, "RA_OF_ASC_NODE": 164.095, "ARG_OF_PERICENTER": 32.8894, "MEAN_ANOMALY": 327.2608, "EPHEMERIS_TYPE": 0, "CLASSIFICATION_TYPE": "U", "NORAD_CAT_ID": 55976, "ELEMENT_SET_NO": 999, "REV_AT_EPOCH": 15424, "BSTAR": 0.00041029, "MEAN_MOTION_DOT": 0.0001727, "MEAN_MOTION_DDOT": 0}, "tle": {"line1": "1 55976U 23039D   25360.88934935  .00017270  00000+0  41029-3 0  9999", "line2": "2 55976  97.5104 164.0950 0004116  32.8894 327.2608 15.41739291154247"}}, "geometry": {"type": "Point", "coordinates": [158.96049390749369, 35.2068120590226]}}, {"type": "Feature", "properties": {"norad_id": 56232, "name": "FENGYUN 3G", "group": "weather", "lat": 35.415630333789146, "lon": -63.267906127925585, "alt_km": 408.10943034106094, "timestamp": "2025-12-27T02:10:15.831528+00:00", "meta": {"OBJECT_NAME": "FENGYUN 3G", "OBJECT_ID": "2023-055A", "EPOCH": "2025-12-26T19:25:47.618688", "MEAN_MOTION": 15.52159153, "ECCENTRICITY": 0.0003929, "INCLINATION": 49.9929, "RA_OF_ASC_NODE": 154.8516, "ARG_OF_PERICENTER": 296.6985, "MEAN_ANOMALY": 63.3579, "EPHEMERIS_TYPE": 0, "CLASSIFICATION_TYPE": "U", "NORAD_CAT_ID": 56232, "ELEMENT_SET_NO": 999, "REV_AT_EPOCH": 15321, "BSTAR": 0.00051601, "MEAN_MOTION_DOT": 0.00031522, "MEAN_MOTION_DDOT": 0}, "tle": {"line1": "1 56232U 23055A   25360.80957892  .00031522  00000+0  51601-3 0  9995", "line2": "2 56232  49.9929 154.8516 0003929 296.6985  63.3579 15.52159153153212"}}, "geometry": {"type": "Point", "coordinates": [-63.267906127925585, 35.415630333789146]}}, {"type": "Feature", "properties": {"norad_id": 57166, "name": "METEOR-M2 3", "group": "weather", "lat": -25.2975231079022, "lon": 58.496968857333265, "alt_km": 815.0867791078254, "timestamp": "2025-12-27T02:10:15.831543+00:00", "meta": {"OBJECT_NAME": "METEOR-M2 3", "OBJECT_ID": "2023-091A", "EPOCH": "2025-12-26T21:13:55.335072", "MEAN_MOTION": 14.24027733, "ECCENTRICITY": 0.0003171, "INCLINATION": 98.636, "RA_OF_ASC_NODE": 54.1757, "ARG_OF_PERICENTER": 324.0542, "MEAN_ANOMALY": 36.0423, "EPHEMERIS_TYPE": 0, "CLASSIFICATION_TYPE": "U", "NORAD_CAT_ID": 57166, "ELEMENT_SET_NO": 999, "REV_AT_EPOCH": 12999, "BSTAR": 2.2855e-05, "MEAN_MOTION_DOT": 9e-08, "MEAN_MOTION_DDOT": 0}, "tle": {"line1": "1 57166U 23091A   25360.88466823  .00000009  00000+0  22855-4 0  9995", "line2": "2 57166  98.6360  54.1757 0003171 324.0542  36.0423 14.24027733129991"}}, "geometry": {"type": "Point", "coordinates": [58.496968857333265, -25.2975231079022]}}, {"type": "Feature", "properties": {"norad_id": 57399, "name": "TIANMU-1 07", "group": "weather", "lat": 46.677518708969885, "lon": -121.57968187163628, "alt_km": 476.8530928749151, "timestamp": "2025-12-27T02:10:15.831554+00:00", "meta": {"OBJECT_NAME": "TIANMU-1 07", "OBJECT_ID": "2023-101A", "EPOCH": "2025-12-26T20:52:42.028032", "MEAN_MOTION": 15.28274056, "ECCENTRICITY": 0.0004885, "INCLINATION": 97.2857, "RA_OF_ASC_NODE": 50.4079, "ARG_OF_PERICENTER": 44.7729, "MEAN_ANOMALY": 315.3904, "EPHEMERIS_TYPE": 0, "CLASSIFICATION_TYPE": "U", "NORAD_CAT_ID": 57399, "ELEMENT_SET_NO": 999, "REV_AT_EPOCH": 13531, "BSTAR": 0.00029558, "MEAN_MOTION_DOT": 8.072e-05, "MEAN_MOTION_DDOT": 0}, "tle": {"line1": "1 57399U 23101A   25360.86993088  .00008072  00000+0  29558-3 0  9995", "line2": "2 57399  97.2857  50.4079 0004885  44.7729 315.3904 15.28274056135314"}}, "geometry": {"type": "Point", "coordinates": [-121.57968187163628, 46.677518708969885]}}, {"type": "Feature", "properties": {"norad_id": 57400, "name": "TIANMU-1 08", "group": "weather", "lat": -46.15802316860673, "lon": 58.073535007021505, "alt_km": 487.7979704756717, "timestamp": "2025-12-27T02:10:15.831564+00:00", "meta": {"OBJECT_NAME": "TIANMU-1 08", "OBJECT_ID": "2023-101B", "EPOCH": "2025-12-26T20:05:20.365728", "MEAN_MOTION": 15.28254727, "ECCENTRICITY": 0.0006833, "INCLINATION": 97.2846, "RA_OF_ASC_NODE": 50.1713, "ARG_OF_PERICENTER": 43.7216, "MEAN_ANOMALY": 316.4564, "EPHEMERIS_TYPE": 0, "CLASSIFICATION_TYPE": "U", "NORAD_CAT_ID": 57400, "ELEMENT_SET_NO": 999, "REV_AT_EPOCH": 13530, "BSTAR": 0.0002974, "MEAN_MOTION_DOT": 8.12e-05, "MEAN_MOTION_DDOT": 0}, "tle": {"line1": "1 57400U 23101B   25360.83704127  .00008120  00000+0  29740-3 0  9996", "line2": "2 57400  97.2846  50.1713 0006833  43.7216 316.4564 15.28254727135308"}}, "geometry": {"type": "Point", "coordinates": [58.073535007021505, -46.15802316860673]}}]}